CCSDS_OMM_VERS = 2.0
CREATION_DATE  = 
ORIGINATOR     = 

OBJECT_NAME    = SL-16 R/B
OBJECT_ID      = 1998-043G
CENTER_NAME    = EARTH
REF_FRAME      = TEME
TIME_SYSTEM    = UTC
MEAN_ELEMENT_THEORY = SGP/SGP4

EPOCH          = 2026-01-22T15:13:02.679456
MEAN_MOTION    = 14.26037040
ECCENTRICITY   = .00104236
INCLINATION    = 98.8183
RA_OF_ASC_NODE = 335.6931
ARG_OF_PERICENTER = 142.9579
MEAN_ANOMALY   = 217.2322

EPHEMERIS_TYPE = 0
CLASSIFICATION_TYPE = U
NORAD_CAT_ID   = 25400
ELEMENT_SET_NO = 999
REV_AT_EPOCH   = 43242
BSTAR          = .87679817E-4
MEAN_MOTION_DOT = .164E-5
MEAN_MOTION_DDOT = 0

CCSDS_OMM_VERS = 2.0
CREATION_DATE  = 
ORIGINATOR     = 

OBJECT_NAME    = SL-16 R/B
OBJECT_ID      = 1998-045B
CENTER_NAME    = EARTH
REF_FRAME      = TEME
TIME_SYSTEM    = UTC
MEAN_ELEMENT_THEORY = SGP/SGP4

EPOCH          = 2026-01-22T22:39:33.540480
MEAN_MOTION    = 14.16185396
ECCENTRICITY   = .00051862
INCLINATION    = 71.0112
RA_OF_ASC_NODE = 277.7766
ARG_OF_PERICENTER = 98.0311
MEAN_ANOMALY   = 262.1401

EPHEMERIS_TYPE = 0
CLASSIFICATION_TYPE = U
NORAD_CAT_ID   = 25407
ELEMENT_SET_NO = 999
REV_AT_EPOCH   = 42062
BSTAR          = .17545151E-3
MEAN_MOTION_DOT = .3E-5
MEAN_MOTION_DDOT = 0

CCSDS_OMM_VERS = 2.0
CREATION_DATE  = 
ORIGINATOR     = 

OBJECT_NAME    = ISS (ZARYA)
OBJECT_ID      = 1998-067A
CENTER_NAME    = EARTH
REF_FRAME      = TEME
TIME_SYSTEM    = UTC
MEAN_ELEMENT_THEORY = SGP/SGP4

EPOCH          = 2026-01-22T22:45:34.404768
MEAN_MOTION    = 15.49569219
ECCENTRICITY   = .00077494
INCLINATION    = 51.6328
RA_OF_ASC_NODE = 298.4677
ARG_OF_PERICENTER = 48.1765
MEAN_ANOMALY   = 311.9884

EPHEMERIS_TYPE = 0
CLASSIFICATION_TYPE = U
NORAD_CAT_ID   = 25544
ELEMENT_SET_NO = 999
REV_AT_EPOCH   = 54924
BSTAR          = .24972681E-3
MEAN_MOTION_DOT = .13618E-3
MEAN_MOTION_DDOT = 0

CCSDS_OMM_VERS = 2.0
CREATION_DATE  = 
ORIGINATOR     = 

OBJECT_NAME    = CZ-4B R/B
OBJECT_ID      = 1999-025C
CENTER_NAME    = EARTH
REF_FRAME      = TEME
TIME_SYSTEM    = UTC
MEAN_ELEMENT_THEORY = SGP/SGP4

EPOCH          = 2026-01-22T14:48:40.025088
MEAN_MOTION    = 14.18254874
ECCENTRICITY   = .00381032
INCLINATION    = 98.6712
RA_OF_ASC_NODE = 67.9715
ARG_OF_PERICENTER = 116.8304
MEAN_ANOMALY   = 46.1104

EPHEMERIS_TYPE = 0
CLASSIFICATION_TYPE = U
NORAD_CAT_ID   = 25732
ELEMENT_SET_NO = 999
REV_AT_EPOCH   = 38163
BSTAR          = .96633862E-4
MEAN_MOTION_DOT = .157E-5
MEAN_MOTION_DDOT = 0

CCSDS_OMM_VERS = 2.0
CREATION_DATE  = 
ORIGINATOR     = 

OBJECT_NAME    = OKEAN-O
OBJECT_ID      = 1999-039A
CENTER_NAME    = EARTH
REF_FRAME      = TEME
TIME_SYSTEM    = UTC
MEAN_ELEMENT_THEORY = SGP/SGP4

EPOCH          = 2026-01-22T14:52:17.279616
MEAN_MOTION    = 14.80248321
ECCENTRICITY   = .00018422
INCLINATION    = 97.9537
RA_OF_ASC_NODE = 82.9565
ARG_OF_PERICENTER = 101.1908
MEAN_ANOMALY   = 258.9511

EPHEMERIS_TYPE = 0
CLASSIFICATION_TYPE = U
NORAD_CAT_ID   = 25860
ELEMENT_SET_NO = 999
REV_AT_EPOCH   = 42757
BSTAR          = .22086382E-3
MEAN_MOTION_DOT = .1628E-4
MEAN_MOTION_DDOT = 0

CCSDS_OMM_VERS = 2.0
CREATION_DATE  = 
ORIGINATOR     = 

OBJECT_NAME    = SL-16 R/B
OBJECT_ID      = 1999-039B
CENTER_NAME    = EARTH
REF_FRAME      = TEME
TIME_SYSTEM    = UTC
MEAN_ELEMENT_THEORY = SGP/SGP4

EPOCH          = 2026-01-22T21:55:07.067136
MEAN_MOTION    = 14.81657689
ECCENTRICITY   = .00158245
INCLINATION    = 98.0063
RA_OF_ASC_NODE = 82.0554
ARG_OF_PERICENTER = 49.6499
MEAN_ANOMALY   = 310.6093

EPHEMERIS_TYPE = 0
CLASSIFICATION_TYPE = U
NORAD_CAT_ID   = 25861
ELEMENT_SET_NO = 999
REV_AT_EPOCH   = 43008
BSTAR          = .15357989E-3
MEAN_MOTION_DOT = .1157E-4
MEAN_MOTION_DDOT = 0

CCSDS_OMM_VERS = 2.0
CREATION_DATE  = 
ORIGINATOR     = 

OBJECT_NAME    = DELTA 2 R/B
OBJECT_ID      = 1999-041E
CENTER_NAME    = EARTH
REF_FRAME      = TEME
TIME_SYSTEM    = UTC
MEAN_ELEMENT_THEORY = SGP/SGP4

EPOCH          = 2026-01-22T17:00:36.670464
MEAN_MOTION    = 14.11606334
ECCENTRICITY   = .05031164
INCLINATION    = 51.7626
RA_OF_ASC_NODE = 124.8877
ARG_OF_PERICENTER = 212.5749
MEAN_ANOMALY   = 144.3199

EPHEMERIS_TYPE = 0
CLASSIFICATION_TYPE = U
NORAD_CAT_ID   = 25876
ELEMENT_SET_NO = 999
REV_AT_EPOCH   = 35653
BSTAR          = .6081057E-3
MEAN_MOTION_DOT = .3551E-4
MEAN_MOTION_DDOT = 0

CCSDS_OMM_VERS = 2.0
CREATION_DATE  = 
ORIGINATOR     = 

OBJECT_NAME    = HELIOS 1B
OBJECT_ID      = 1999-064A
CENTER_NAME    = EARTH
REF_FRAME      = TEME
TIME_SYSTEM    = UTC
MEAN_ELEMENT_THEORY = SGP/SGP4

EPOCH          = 2026-01-22T23:23:37.288032
MEAN_MOTION    = 14.87484520
ECCENTRICITY   = .00011077
INCLINATION    = 98.1737
RA_OF_ASC_NODE = 283.8660
ARG_OF_PERICENTER = 136.1092
MEAN_ANOMALY   = 224.0211

EPHEMERIS_TYPE = 0
CLASSIFICATION_TYPE = U
NORAD_CAT_ID   = 25977
ELEMENT_SET_NO = 999
REV_AT_EPOCH   = 67846
BSTAR          = .28332683E-3
MEAN_MOTION_DOT = .2509E-4
MEAN_MOTION_DDOT = 0

CCSDS_OMM_VERS = 2.0
CREATION_DATE  = 
ORIGINATOR     = 

OBJECT_NAME    = TERRA
OBJECT_ID      = 1999-068A
CENTER_NAME    = EARTH
REF_FRAME      = TEME
TIME_SYSTEM    = UTC
MEAN_ELEMENT_THEORY = SGP/SGP4

EPOCH          = 2026-01-22T23:26:33.279648
MEAN_MOTION    = 14.60957624
ECCENTRICITY   = .0001793
INCLINATION    = 97.9686
RA_OF_ASC_NODE = 78.1358
ARG_OF_PERICENTER = 1.5950
MEAN_ANOMALY   = 119.1364

EPHEMERIS_TYPE = 0
CLASSIFICATION_TYPE = U
NORAD_CAT_ID   = 25994
ELEMENT_SET_NO = 999
REV_AT_EPOCH   = 38840
BSTAR          = .19429939E-3
MEAN_MOTION_DOT = .908E-5
MEAN_MOTION_DDOT = 0

CCSDS_OMM_VERS = 2.0
CREATION_DATE  = 
ORIGINATOR     = 

OBJECT_NAME    = SL-16 R/B
OBJECT_ID      = 2000-006B
CENTER_NAME    = EARTH
REF_FRAME      = TEME
TIME_SYSTEM    = UTC
MEAN_ELEMENT_THEORY = SGP/SGP4

EPOCH          = 2026-01-22T21:02:50.983872
MEAN_MOTION    = 14.15813016
ECCENTRICITY   = .00187098
INCLINATION    = 71.0003
RA_OF_ASC_NODE = 194.1620
ARG_OF_PERICENTER = 253.2345
MEAN_ANOMALY   = 106.6725

EPHEMERIS_TYPE = 0
CLASSIFICATION_TYPE = U
NORAD_CAT_ID   = 26070
ELEMENT_SET_NO = 999
REV_AT_EPOCH   = 34207
BSTAR          = .83800514E-4
MEAN_MOTION_DOT = .117E-5
MEAN_MOTION_DDOT = 0

CCSDS_OMM_VERS = 2.0
CREATION_DATE  = 
ORIGINATOR     = 

OBJECT_NAME    = TITAN 4B R/B
OBJECT_ID      = 2000-047B
CENTER_NAME    = EARTH
REF_FRAME      = TEME
TIME_SYSTEM    = UTC
MEAN_ELEMENT_THEORY = SGP/SGP4

EPOCH          = 2026-01-22T21:44:42.513504
MEAN_MOTION    = 15.09138884
ECCENTRICITY   = .00368691
INCLINATION    = 67.9890
RA_OF_ASC_NODE = 169.2103
ARG_OF_PERICENTER = 92.7937
MEAN_ANOMALY   = 267.7433

EPHEMERIS_TYPE = 0
CLASSIFICATION_TYPE = U
NORAD_CAT_ID   = 26474
ELEMENT_SET_NO = 999
REV_AT_EPOCH   = 38600
BSTAR          = .32781278E-3
MEAN_MOTION_DOT = .5165E-4
MEAN_MOTION_DDOT = 0

CCSDS_OMM_VERS = 2.0
CREATION_DATE  = 
ORIGINATOR     = 

OBJECT_NAME    = ENVISAT
OBJECT_ID      = 2002-009A
CENTER_NAME    = EARTH
REF_FRAME      = TEME
TIME_SYSTEM    = UTC
MEAN_ELEMENT_THEORY = SGP/SGP4

EPOCH          = 2026-01-22T20:30:01.681632
MEAN_MOTION    = 14.39017219
ECCENTRICITY   = .00012093
INCLINATION    = 98.3656
RA_OF_ASC_NODE = 337.5651
ARG_OF_PERICENTER = 91.6255
MEAN_ANOMALY   = 298.3552

EPHEMERIS_TYPE = 0
CLASSIFICATION_TYPE = U
NORAD_CAT_ID   = 27386
ELEMENT_SET_NO = 999
REV_AT_EPOCH   = 25258
BSTAR          = .99495938E-4
MEAN_MOTION_DOT = .264E-5
MEAN_MOTION_DDOT = 0

