SL-16 R/B               
1 25400U 98043G   26022.63405879  .00000164  00000+0  87680-4 0  9992
2 25400  98.8183 335.6931 0010423 142.9579 217.2322 14.26037040432428
SL-16 R/B               
1 25407U 98045B   26022.94413820  .00000300  00000+0  17545-3 0  9994
2 25407  71.0112 277.7766 0005186  98.0311 262.1401 14.16185396420620
ISS (ZARYA)             
1 25544U 98067A   26022.94831487  .00013618  00000+0  24973-3 0  9992
2 25544  51.6328 298.4677 0007749  48.1765 311.9884 15.49569219549247
CZ-4B R/B               
1 25732U 99025C   26022.61712992  .00000157  00000+0  96634-4 0  9997
2 25732  98.6712  67.9715 0038103 116.8304  46.1104 14.18254874381638
OKEAN-O                 
1 25860U 99039A   26022.61964444  .00001628  00000+0  22086-3 0  9998
2 25860  97.9537  82.9565 0001842 101.1908 258.9511 14.80248321427572
SL-16 R/B               
1 25861U 99039B   26022.91327624  .00001157  00000+0  15358-3 0  9996
2 25861  98.0063  82.0554 0015824  49.6499 310.6093 14.81657689430087
DELTA 2 R/B             
1 25876U 99041E   26022.70875776  .00003551  00000+0  60811-3 0  9992
2 25876  51.7626 124.8877 0503116 212.5749 144.3199 14.11606334356532
HELIOS 1B               
1 25977U 99064A   26022.97473713  .00002509  00000+0  28333-3 0  9998
2 25977  98.1737 283.8660 0001107 136.1092 224.0211 14.87484520678467
TERRA                   
1 25994U 99068A   26022.97677407  .00000908  00000+0  19430-3 0  9996
2 25994  97.9686  78.1358 0001793   1.5950 119.1364 14.60957624388400
SL-16 R/B               
1 26070U 00006B   26022.87697898  .00000117  00000+0  83801-4 0  9997
2 26070  71.0003 194.1620 0018709 253.2345 106.6725 14.15813016342073
TITAN 4B R/B            
1 26474U 00047B   26022.90604761  .00005165  00000+0  32781-3 0  9999
2 26474  67.9890 169.2103 0036869  92.7937 267.7433 15.09138884386001
ENVISAT                 
1 27386U 02009A   26022.85418613  .00000264  00000+0  99496-4 0  9997
2 27386  98.3656 337.5651 0001209  91.6255 298.3552 14.39017219252588
